ORBCOMM FM103           
1 40091U 14040F   25100.14400559  .00001530  00000+0  36605-3 0  9990
2 40091  47.0070 339.1182 0002148 320.4353  39.6375 14.58028766571234
ORBCOMM FM114           
1 41179U 15081A   25099.48245984  .00001837  00000+0  43172-3 0  9994
2 41179  47.0007 251.3279 0001442  20.7358 339.3586 14.58083518494442
ORBCOMM FM119           
1 41180U 15081B   25099.87828076  .00001293  00000+0  31529-3 0  9997
2 41180  46.9992 158.7477 0000252 170.2531 189.8360 14.58003836495755
ORBCOMM FM105           
1 41181U 15081C   25099.84690953  .00000605  00000+0  21606-3 0  9997
2 41181  47.0002 157.2176 0001632 339.7214  20.3601 14.45146931490867
ORBCOMM FM110           
1 41182U 15081D   25099.73270227  .00002047  00000+0  47841-3 0  9995
2 41182  47.0004 249.5175 0002555 219.9929 140.0769 14.57937168494357
ORBCOMM FM118           
1 41183U 15081E   25099.85493668  .00001960  00000+0  45856-3 0  9992
2 41183  47.0028 249.4024 0002966 197.4149 162.6635 14.58037537494473
ORBCOMM FM112           
1 41184U 15081F   25099.85462847  .00001611  00000+0  38404-3 0  9992
2 41184  46.9973 158.0197 0000758 358.5605   1.5278 14.57956247495697
ORBCOMM FM113           
1 41185U 15081G   25099.48900806  .00001586  00000+0  37834-3 0  9991
2 41185  46.9989 160.0626 0000320 356.9872   3.1011 14.57993130495626
